     2              NAVIGATION DATA                         RINEX VERSION / TYPE
CCRINEXN V1.6.0 UX  CDDIS               03-JUN-25 08:53     PGM / RUN BY / DATE 
IGS BROADCAST EPHEMERIS FILE                                COMMENT             
    0.1583D-07  0.2235D-07 -0.1192D-06 -0.1192D-06          ION ALPHA           
    0.1126D+06  0.1475D+06 -0.1311D+06 -0.3932D+06          ION BETA            
   -0.931322574616D-09-0.710542735760D-14   405504     2369 DELTA-UTC: A0,A1,T,W
    18                                                      LEAP SECONDS        
                                                            END OF HEADER       
17 25  6  3  6  0  0.0 0.251814257353D-03-0.173940861714D-10 0.000000000000D+00
    0.380000000000D+02 0.540625000000D+01 0.468626663039D-08-0.107464100540D+01
    0.324100255966D-06 0.130401564529D-01 0.651925802231D-05 0.515369181061D+04
    0.194400000000D+06-0.171363353729D-06 0.676636045636D+00 0.204890966415D-07
    0.963455765720D+00 0.259218750000D+03-0.121321524313D+01-0.838820654533D-08
   -0.305727020472D-09 0.100000000000D+01 0.236900000000D+04 0.000000000000D+00
    0.200000000000D+01 0.000000000000D+00-0.111758700000D-07 0.380000000000D+02
    0.187320000000D+06 0.400000000000D+01 0.000000000000D+00 0.000000000000D+00
18 25  6  3  6  0  0.0-0.616518780589D-03 0.557065504836D-11 0.000000000000D+00
    0.204000000000D+03 0.169062500000D+02 0.395873632583D-08-0.309022717431D+01
    0.910833477974D-06 0.514346070122D-02 0.833906233311D-05 0.515369447517D+04
    0.194400000000D+06-0.316649675369D-07 0.168475486709D+01-0.242143869400D-07
    0.973396084871D+00 0.226281250000D+03-0.295786488466D+01-0.779496754883D-08
   -0.335728270144D-10 0.100000000000D+01 0.236900000000D+04 0.000000000000D+00
    0.200000000000D+01 0.000000000000D+00-0.838190317154D-08 0.716000000000D+03
    0.191982000000D+06 0.400000000000D+01 0.000000000000D+00 0.000000000000D+00
19 25  6  3  6  0  0.0 0.634378287941D-03 0.352429196937D-11 0.000000000000D+00
    0.290000000000D+02-0.200000000000D+01 0.467233747875D-08 0.780571461226D+00
   -0.286847352982D-06 0.106166400947D-01 0.593811273575D-05 0.515363403320D+04
    0.194400000000D+06 0.275671482086D-06 0.720727581700D+00 0.186264514923D-08
    0.962653542407D+00 0.263343750000D+03 0.278117009732D+01-0.826677291570D-08
   -0.439661170795D-09 0.100000000000D+01 0.236900000000D+04 0.000000000000D+00
    0.200000000000D+01 0.000000000000D+00-0.153668224812D-07 0.290000000000D+02
    0.187218000000D+06 0.400000000000D+01 0.000000000000D+00 0.000000000000D+00
20 25  6  3  6  0  0.0 0.364182051271D-03-0.227373675443D-12 0.000000000000D+00
    0.520000000000D+02 0.247812500000D+02 0.442732727309D-08-0.287139710739D+01
    0.132620334625D-05 0.346533744596D-02 0.653415918350D-05 0.515378366280D+04
    0.194400000000D+06 0.149011611938D-07 0.253031823704D+01-0.838190317154D-07
    0.958755686423D+00 0.250906250000D+03-0.225800256120D+01-0.809962309610D-08
    0.326085011321D-09 0.100000000000D+01 0.236900000000D+04 0.000000000000D+00
    0.200000000000D+01 0.000000000000D+00-0.838190317154D-08 0.520000000000D+02
    0.193368000000D+06 0.400000000000D+01 0.000000000000D+00 0.000000000000D+00
22 25  6  3  6  0  0.0-0.102924183011D-03 0.341060513165D-12 0.000000000000D+00
    0.890000000000D+02 0.417812500000D+02 0.491663336894D-08-0.555546069364D+00
    0.225752592087D-05 0.131138366414D-01 0.721961259842D-05 0.515365201950D+04
    0.194400000000D+06-0.113621354103D-06-0.339217795703D+00-0.111758708954D-06
    0.959126237720D+00 0.241687500000D+03-0.106169538730D+01-0.843320841984D-08
    0.143220251413D-09 0.100000000000D+01 0.236900000000D+04 0.000000000000D+00
    0.280000000000D+01 0.000000000000D+00-0.111758708954D-07 0.890000000000D+02
    0.187236000000D+06 0.400000000000D+01 0.000000000000D+00 0.000000000000D+00
24 25  6  3  6  0  0.0-0.389728229493D-03 0.829913915368D-11 0.000000000000D+00
    0.920000000000D+02-0.405000000000D+02 0.511949896197D-08-0.294198264431D+01
   -0.224821269512D-05 0.167393694865D-01 0.945851206779D-05 0.515367750549D+04
    0.194400000000D+06 0.203028321266D-06-0.158030110451D+01-0.251457095146D-06
    0.933973637648D+00 0.179843750000D+03 0.106300812953D+01-0.799533303771D-08
    0.846463830045D-10 0.100000000000D+01 0.236900000000D+04 0.000000000000D+00
    0.200000000000D+01 0.000000000000D+00 0.232830643654D-08 0.920000000000D+02
    0.187236000000D+06 0.400000000000D+01 0.000000000000D+00 0.000000000000D+00
25 25  6  3  6  0  0.0 0.485480763018D-03-0.125055521494D-11 0.000000000000D+00
    0.270000000000D+02 0.421562500000D+02 0.501235164171D-08 0.157729976130D+01
    0.198557972908D-05 0.122645285446D-01 0.759586691856D-05 0.515362263870D+04
    0.194400000000D+06-0.339001417160D-06-0.450643451337D+00-0.143423676491D-06
    0.948578614461D+00 0.228062500000D+03 0.112484459418D+01-0.830534595100D-08
    0.753602819154D-10 0.100000000000D+01 0.236900000000D+04 0.000000000000D+00
    0.200000000000D+01 0.000000000000D+00 0.558793544769D-08 0.270000000000D+02
    0.187225000000D+06 0.400000000000D+01 0.000000000000D+00 0.000000000000D+00
26 25  6  3  6  0  0.0-0.266611110419D-03-0.152340362547D-10 0.000000000000D+00
    0.460000000000D+02 0.451250000000D+02 0.555451708222D-08 0.718511876698D+00
    0.264123082161D-05 0.100111082429D-01 0.713951885700D-05 0.515357755089D+04
    0.194400000000D+06-0.279396772385D-07-0.520019858674D+00 0.137835741043D-06
    0.929296706104D+00 0.223406250000D+03 0.631199738220D+00-0.865928926558D-08
   -0.571452374714D-10 0.100000000000D+01 0.236900000000D+04 0.000000000000D+00
    0.200000000000D+01 0.000000000000D+00 0.651925802231D-08 0.460000000000D+02
    0.187218000000D+06 0.400000000000D+01 0.000000000000D+00 0.000000000000D+00
27 25  6  3  6  0  0.0-0.249543227255D-04 0.568434188608D-12 0.000000000000D+00
    0.870000000000D+02 0.856250000000D+01 0.472733976982D-08-0.101641318807D+01
    0.489875674248D-06 0.134669529507D-01 0.621192157269D-05 0.515369299316D+04
    0.194400000000D+06 0.232830643654D-06 0.605818991684D+00 0.253319740295D-06
    0.956792318698D+00 0.256562500000D+03 0.849619954013D+00-0.827213028172D-08
   -0.402873924173D-09 0.100000000000D+01 0.236900000000D+04 0.000000000000D+00
    0.200000000000D+01 0.000000000000D+00 0.232830643654D-08 0.870000000000D+02
    0.193330000000D+06 0.400000000000D+01 0.000000000000D+00 0.000000000000D+00
28 25  6  3  6  0  0.0-0.619248021394D-03-0.420641299570D-11 0.000000000000D+00
    0.220000000000D+02-0.200937500000D+02 0.462376402690D-08 0.257559035677D+01
   -0.985339283943D-06 0.288954004645D-03 0.982545316219D-05 0.515362070656D+04
    0.194400000000D+06-0.409781932831D-07-0.150549402342D+01 0.372529029846D-08
    0.961142548451D+00 0.191562500000D+03 0.141041356904D+00-0.794461663946D-08
    0.757174396496D-10 0.100000000000D+01 0.236900000000D+04 0.000000000000D+00
    0.200000000000D+01 0.000000000000D+00-0.931322574616D-08 0.790000000000D+03
    0.187218000000D+06 0.400000000000D+01 0.000000000000D+00 0.000000000000D+00
29 25  6  3  6  0  0.0-0.499335583299D-03 0.454747350886D-11 0.000000000000D+00
    0.180000000000D+02 0.437500000000D+00 0.446768609706D-08-0.114744685552D+01
   -0.558793544769D-07 0.329970533494D-02 0.638328492641D-05 0.515364029884D+04
    0.194400000000D+06-0.670552253723D-07 0.692624811289D+00-0.428408384323D-07
    0.966015095549D+00 0.259406250000D+03 0.267482948056D+01-0.809355141462D-08
   -0.294655130712D-09 0.100000000000D+01 0.236900000000D+04 0.000000000000D+00
    0.200000000000D+01 0.000000000000D+00-0.977888703346D-08 0.180000000000D+02
    0.187228000000D+06 0.400000000000D+01 0.000000000000D+00 0.000000000000D+00
30 25  6  3  6  0  0.0-0.128637533635D-03 0.989075488178D-11 0.000000000000D+00
    0.550000000000D+02-0.282500000000D+02 0.516592946741D-08 0.217616957173D+01
   -0.144913792610D-05 0.770294305403D-02 0.106468796730D-04 0.515367965698D+04
    0.194400000000D+06-0.143423676491D-06-0.148159704009D+01-0.126659870148D-06
    0.935326718375D+00 0.163187500000D+03-0.236440119437D+01-0.819855578847D-08
    0.825034365993D-10 0.100000000000D+01 0.236900000000D+04 0.000000000000D+00
    0.200000000000D+01 0.000000000000D+00 0.372529029846D-08 0.550000000000D+02
    0.193968000000D+06 0.400000000000D+01 0.000000000000D+00 0.000000000000D+00
31 25  6  3  6  0  0.0-0.205102376640D-03 0.125055521494D-11 0.000000000000D+00
    0.660000000000D+02-0.145000000000D+02 0.482734393539D-08 0.144330142746D+01
   -0.637024641037D-06 0.105703140143D-01 0.102482736111D-04 0.515367432213D+04
    0.194400000000D+06-0.223517417908D-06-0.145358210328D+01 0.111758708954D-06
    0.953991395262D+00 0.183187500000D+03 0.822913151236D+00-0.816569727693D-08
    0.714315468392D-12 0.100000000000D+01 0.236900000000D+04 0.000000000000D+00
    0.200000000000D+01 0.000000000000D+00-0.130385160446D-07 0.660000000000D+02
    0.187218000000D+06 0.400000000000D+01 0.000000000000D+00 0.000000000000D+00
32 25  6  3  6  0  0.0-0.434138346463D-03 0.108002495835D-10 0.000000000000D+00
    0.980000000000D+02-0.522812500000D+02 0.464697927962D-08-0.391902724687D+00
   -0.268034636974D-05 0.856876734178D-02 0.644475221634D-05 0.515361565399D+04
    0.194400000000D+06-0.782310962677D-07-0.253368523663D+01 0.856816768646D-07
    0.965116176277D+00 0.261843750000D+03-0.205595738727D+01-0.828141638280D-08
    0.589310261423D-10 0.100000000000D+01 0.236900000000D+04 0.000000000000D+00
    0.200000000000D+01 0.000000000000D+00 0.931322574616D-09 0.980000000000D+02
    0.187220000000D+06 0.400000000000D+01 0.000000000000D+00 0.000000000000D+00
